[{"OBJECT_NAME":"NUSAT-44 (MARIA MITCHELL)","OBJECT_ID":"2024-043AA","EPOCH":"2026-03-09T22:12:18.524160","MEAN_MOTION":15.29764305,"ECCENTRICITY":0.0007331,"INCLINATION":97.5299,"RA_OF_ASC_NODE":207.7691,"ARG_OF_PERICENTER":214.9017,"MEAN_ANOMALY":145.1743,"EPHEMERIS_TYPE":0,"CLASSIFICATION_TYPE":"U","NORAD_CAT_ID":59122,"ELEMENT_SET_NO":999,"REV_AT_EPOCH":11209,"BSTAR":0.00061063193,"MEAN_MOTION_DOT":0.00017562,"MEAN_MOTION_DDOT":0},{"OBJECT_NAME":"STARLINK-35994","OBJECT_ID":"2025-278AD","EPOCH":"2026-03-09T04:37:34.138272","MEAN_MOTION":15.27583304,"ECCENTRICITY":0.00013033,"INCLINATION":43.0009,"RA_OF_ASC_NODE":117.1212,"ARG_OF_PERICENTER":187.8915,"MEAN_ANOMALY":172.1916,"EPHEMERIS_TYPE":0,"CLASSIFICATION_TYPE":"U","NORAD_CAT_ID":66818,"ELEMENT_SET_NO":999,"REV_AT_EPOCH":1513,"BSTAR":0.0012778175,"MEAN_MOTION_DOT":0.00035072,"MEAN_MOTION_DDOT":0}]
